{
"type": "FeatureCollection",
"name": "Tennis Courts Facilities - 4326",
"crs": { "type": "name", "properties": { "name": "urn:ogc:def:crs:OGC:1.3:CRS84" } },
"features": [
{ "type": "Feature", "geometry": { "type": "Point", "coordinates": [ -79.384081, 43.672091 ] }, "properties": { "_id": 1, "ID": "2341", "Name": "Agincourt Park", "Type": "Club", "Lights": "Yes", "Courts": "4", "Phone": "311", "ClubName": "Agincourt Tennis Club", "ClubWebsite": "http://www.agincourttennisclub.ca", "ClubInfo": null, "LocationAddress": "27  Glen Watford Dr ", "WinterPlay": null, "url": "https://www.toronto.ca/ext/pfr/img/2341/27720-tennis-court-one-agincourt-park.jpg","Rating":"3.0"} },
{ "type": "Feature", "geometry": { "type": "Point", "coordinates": [ -79.369558150499998, 43.7810883366 ] }, "properties": { "_id": 2, "ID": "1044", "Name": "Alamosa Park", "Type": "Club", "Lights": "No", "Courts": "3", "Phone": "416-496-0225", "ClubName": "Bridlebrook Tennis Club", "ClubWebsite": "http://www.nyta.org", "ClubInfo": null, "LocationAddress": "111  Alamosa Dr ", "WinterPlay": null, "url": "https://www.bridlebrook.ca/WordPress/wp-content/uploads/2021/03/team20.jpg" ,"Rating":"4.4"} },
{ "type": "Feature", "geometry": { "type": "Point", "coordinates": [ -79.558917218100007, 43.739644176799999 ] }, "properties": { "_id": 3, "ID": "923", "Name": "Albion Gardens Park", "Type": "Public", "Lights": "Yes", "Courts": "3", "Phone": "311", "ClubName": null, "ClubWebsite": null, "ClubInfo": null, "LocationAddress": "41  Deanlea Crt ", "WinterPlay": null, "url": "https://www.toronto.ca/ext/pfr/img/923/7451-tennis-court-albion-gardens-park.jpg" ,"Rating":"4.6"} },
{ "type": "Feature", "geometry": { "type": "Point", "coordinates": [ -79.483422496200006, 43.706186495799997 ] }, "properties": { "_id": 4, "ID": "484", "Name": "Amesbury Park", "Type": "Public", "Lights": "No", "Courts": "2", "Phone": "311", "ClubName": null, "ClubWebsite": null, "ClubInfo": null, "LocationAddress": "151 Culford Rd ", "WinterPlay": "Yes", "url": "https://lh3.googleusercontent.com/gps-cs-s/AC9h4nokcEnhj41BEX5fElRh8HLw9B-AuvLxR9VowpA01HO59Bu9_mJoASGBK-kXk5MLddF5eDFp3VqBOslM0yyCEy5Ba2iawTtLrAc4cT1gxsoJyetKG8Ozjey3baJcYQ1mzXascOUf=s1360-w1360-h1020-rw" ,"Rating":"4.4"} },
{ "type": "Feature", "geometry": { "type": "Point", "coordinates": [ -79.4655052281, 43.7334252351 ] }, "properties": { "_id": 5, "ID": "491", "Name": "Ancaster Park", "Type": "Public", "Lights": "No", "Courts": "3", "Phone": "311", "ClubName": null, "ClubWebsite": null, "ClubInfo": null, "LocationAddress": "43  Ancaster Rd ", "WinterPlay": null, "url": "https://www.toronto.ca/ext/pfr/img/491/480-486-tennis-court-ancaster-park.jpg" ,"Rating":"4.6"} },
{ "type": "Feature", "geometry": { "type": "Point", "coordinates": [ -79.327598527, 43.713206128 ] }, "properties": { "_id": 6, "ID": "965", "Name": "Angela James Arena - Tennis Court Area", "Type": "Public", "Lights": "Yes", "Courts": "4", "Phone": "416-395-7838", "ClubName": null, "ClubWebsite": null, "ClubInfo": null, "LocationAddress": "165  Grenoble Dr ", "WinterPlay": "Yes", "url": "https://www.bounce.game/_next/image?url=https%3A%2F%2Ffiles.bounceassets.com%2Fimages%2Fvenues%2F1e84fb74254f1002eec4cda09126d072cf5d55e2.png&w=1920&q=75" ,"Rating":"4.2"} },
{ "type": "Feature", "geometry": { "type": "Point", "coordinates": [ -79.446995760299998, 43.7811383787 ] }, "properties": { "_id": 7, "ID": "42", "Name": "Antibes Community Centre", "Type": "Public", "Lights": "No", "Courts": "1", "Phone": "416-395-0096", "ClubName": null, "ClubWebsite": null, "ClubInfo": null, "LocationAddress": "140 Antibes Dr ", "WinterPlay": "Yes", "url": "https://ir.4sqi.net/img/general/original/75908757_HaL7a3JwyuFOp4lsDEiBb37n9o0ZERqvkU3iu69AhbM.jpg" ,"Rating":"4.2"} },
{ "type": "Feature", "geometry": { "type": "Point", "coordinates": [ -79.449885803499996, 43.744863325499999 ] }, "properties": { "_id": 8, "ID": "505", "Name": "Balmoral Park", "Type": "Public", "Lights": "Yes", "Courts": "3", "Phone": "311", "ClubName": null, "ClubWebsite": null, "ClubInfo": null, "LocationAddress": "170  Faywood Blvd ", "WinterPlay": null, "url": "https://www.toronto.ca/ext/pfr/img/505/505-tennis-courts-balmoral-park.jpg" ,"Rating":"4.4"} },
{ "type": "Feature", "geometry": { "type": "Point", "coordinates": [ -79.369873489400007, 43.742774003599997 ] }, "properties": { "_id": 9, "ID": "2113", "Name": "Banbury Park", "Type": "Club", "Lights": "Yes", "Courts": "4", "Phone": "416-443- 0941", "ClubName": "Banbury Tennis Club", "ClubWebsite": "http://www.banburytennisclub.net", "ClubInfo": null, "LocationAddress": "120  Banbury Rd ", "WinterPlay": null, "url": "https://www.toronto.ca/ext/pfr/img/2113/24348-24400-tennis-court-banbury-community-centre.jpg" ,"Rating":"4.6"} },
{ "type": "Feature", "geometry": { "type": "Point", "coordinates": [ -79.445313154399997, 43.7271773569 ] }, "properties": { "_id": 10, "ID": "513", "Name": "Baycrest Park", "Type": "Public", "Lights": "Yes", "Courts": "2", "Phone": "311", "ClubName": null, "ClubWebsite": null, "ClubInfo": null, "LocationAddress": "160  Neptune Dr ", "WinterPlay": "Yes", "url": "https://www.toronto.ca/wp-content/uploads/2024/05/9657-city-wide-tennis-improvements-banner.jpg" ,"Rating":"4.5"} },
{ "type": "Feature", "geometry": { "type": "Point", "coordinates": [ -79.387262737300006, 43.773025474699999 ] }, "properties": { "_id": 11, "ID": "517", "Name": "Bayview Village Park", "Type": "Public", "Lights": "No", "Courts": "3", "Phone": "311", "ClubName": null, "ClubWebsite": null, "ClubInfo": null, "LocationAddress": "2945  Bayview Ave ", "WinterPlay": null, "url": "https://bayviewvillagetennis.com/wp-content/uploads/2018/02/2015-09-14.jpg" ,"Rating":"4.5"} },
{ "type": "Feature", "geometry": { "type": "Point", "coordinates": [ -79.298509097299998, 43.666129872900001 ] }, "properties": { "_id": 12, "ID": "219", "Name": "Beaches Park", "Type": "Club", "Lights": "Yes", "Courts": "10", "Phone": "416-699-1635", "ClubName": "Kew Gardens Tennis Club", "ClubWebsite": "http://www.kewgardenstennis.ca", "ClubInfo": null, "LocationAddress": "2075 Queen St E", "WinterPlay": null, "url": "https://www.toronto.ca/ext/pfr/img/219/7786-7790-tennis-court-2-beaches-park.jpg" ,"Rating":"4.5"} },
{ "type": "Feature", "geometry": { "type": "Point", "coordinates": [ -79.574493722900002, 43.740813307 ] }, "properties": { "_id": 13, "ID": "826", "Name": "Beaumonde Heights Park", "Type": "Public", "Lights": "No", "Courts": "3", "Phone": "311", "ClubName": null, "ClubWebsite": null, "ClubInfo": null, "LocationAddress": "17 A Waltham Dr ", "WinterPlay": null, "url": "https://www.toronto.ca/ext/pfr/img/826/826-tennis-court-beaumonde-heights-park.jpg" ,"Rating":"4.3"} },
{ "type": "Feature", "geometry": { "type": "Point", "coordinates": [ -79.361302551500003, 43.783667873299997 ] }, "properties": { "_id": 14, "ID": "518", "Name": "Bellbury Park", "Type": "Club", "Lights": "Yes", "Courts": "5", "Phone": "416-806-0654", "ClubName": "Bellbury Tennis Club", "ClubWebsite": "http://www.bellburytennisclub.com", "ClubInfo": null, "LocationAddress": "55  Van Horne Ave. ", "WinterPlay": null, "url": "https://www.toronto.ca/ext/pfr/img/518/2052-tennis-court-one-bellbury-park.jpg" ,"Rating":"4.5"} },
{ "type": "Feature", "geometry": { "type": "Point", "coordinates": [ -79.369565869400006, 43.695004658099997 ] }, "properties": { "_id": 15, "ID": "1025", "Name": "Bennington Heights Park", "Type": "Club", "Lights": "Yes", "Courts": "2", "Phone": "311", "ClubName": "Bennington Heights Tennis Club", "ClubWebsite": "http://www.benningtonheightstennis.org", "ClubInfo": null, "LocationAddress": "465  Heath St E", "WinterPlay": null, "url": "https://www.toronto.ca/ext/pfr/img/1025/32060-32061-tennis-court-bennington-heights-park.jpg" ,"Rating":"3.8"} },
{ "type": "Feature", "geometry": { "type": "Point", "coordinates": [ -79.383611575, 43.802587081200002 ] }, "properties": { "_id": 16, "ID": "521", "Name": "Bestview Park", "Type": "Public", "Lights": "Yes", "Courts": "3", "Phone": "311", "ClubName": null, "ClubWebsite": null, "ClubInfo": null, "LocationAddress": "115  Bestview Dr ", "WinterPlay": "Yes", "url": "https://www.toronto.ca/ext/pfr/img/521/521-tennis-courts-bestview-park.jpg" ,"Rating":"4.6"} },
{ "type": "Feature", "geometry": { "type": "Point", "coordinates": [ -79.527418583, 43.5916807547 ] }, "properties": { "_id": 17, "ID": "827", "Name": "Birch Park", "Type": "Public", "Lights": "Yes", "Courts": "2", "Phone": "311", "ClubName": null, "ClubWebsite": null, "ClubInfo": null, "LocationAddress": "75  Arcadian Cir ", "WinterPlay": "Yes", "url": "https://www.toronto.ca/ext/pfr/img/827/54986-tennis-court-birch-park.jpg" ,"Rating":"4.4 "} },
{ "type": "Feature", "geometry": { "type": "Point", "coordinates": [ -79.260666647400001, 43.695997544500003 ] }, "properties": { "_id": 18, "ID": "550", "Name": "Birchmount Park", "Type": "Public", "Lights": "Yes", "Courts": "2", "Phone": "311", "ClubName": null, "ClubWebsite": null, "ClubInfo": null, "LocationAddress": "95  Birchmount Rd ", "WinterPlay": "Yes", "url": "https://www.toronto.ca/ext/pfr/img/550/70145-tennis-court-one-birchmount-park.jpg" ,"Rating":"4.6"} },
{ "type": "Feature", "geometry": { "type": "Point", "coordinates": [ -79.5702503041, 43.636721786800003 ] }, "properties": { "_id": 19, "ID": "2795", "Name": "Bloordale Park South", "Type": "Public", "Lights": "No", "Courts": "2", "Phone": "311", "ClubName": null, "ClubWebsite": null, "ClubInfo": null, "LocationAddress": "230 Renforth Dr ", "WinterPlay": null, "url": "https://miturf.com/system/space/photos/B/large/f5025034ab9227ebc72a0a97a570d1e44d10be83.png?1493062138" ,"Rating":"4.6"} },
{ "type": "Feature", "geometry": { "type": "Point", "coordinates": [ -79.351249902700005, 43.746415371799998 ] }, "properties": { "_id": 20, "ID": "465", "Name": "Bond Park", "Type": "Club", "Lights": "Yes", "Courts": "6", "Phone": "416 444-7311", "ClubName": "Nyta Winter Tennis Club,The Don Mills Tennis Club", "ClubWebsite": "http://www.nywintertennisclub.com,http://www.donmillstennisclub.com", "ClubInfo": null, "LocationAddress": "120  Bond Ave ", "WinterPlay": null, "url": "https://static1.squarespace.com/static/5a0a0849f43b5598bcdcb97d/t/5a53aafe0d9297e2e4fbc3d4/1515432714055/?format=1500w" ,"Rating":"4.5"} },
{ "type": "Feature", "geometry": { "type": "Point", "coordinates": [ -79.2115040427, 43.778100805199998 ] }, "properties": { "_id": 21, "ID": "560", "Name": "Botany Hill Park", "Type": "Club", "Lights": "Yes", "Courts": "4", "Phone": "311", "ClubName": "Botany Hill Park", "ClubWebsite": null, "ClubInfo": null, "LocationAddress": "277  Orton Park Rd ", "WinterPlay": null, "url": "https://www.toronto.ca/ext/pfr/img/560/3230-picnic-site-botany-hill-park.jpg" ,"Rating":"4.4"} },
{ "type": "Feature", "geometry": { "type": "Point", "coordinates": [ -79.316240152700004, 43.782918259900001 ] }, "properties": { "_id": 22, "ID": "578", "Name": "Bridlewood Park", "Type": "Club", "Lights": "Yes", "Courts": "3", "Phone": "311", "ClubName": "Bridlewood Tennis Club", "ClubWebsite": "http://www.bridlewoodtennis.ca", "ClubInfo": null, "LocationAddress": "445  Huntingwood Dr ", "WinterPlay": null, "url": "https://encrypted-tbn0.gstatic.com/images?q=tbn:ANd9GcSk1GQ2m7liG7TXD14oHIbSRGGN7ydqGNkEyw&s" ,"Rating":"4.2"} },
{ "type": "Feature", "geometry": { "type": "Point", "coordinates": [ -79.321292499, 43.745913483899997 ] }, "properties": { "_id": 23, "ID": "215", "Name": "Broadlands Park", "Type": "Club", "Lights": "Yes", "Courts": "4", "Phone": "416-707-5930", "ClubName": "O'Connor Hills Tennis Club", "ClubWebsite": "http://www.oconnorhillstennis.com", "ClubInfo": null, "LocationAddress": "19  Castlegrove Blvd ", "WinterPlay": null, "url": "https://www.toronto.ca/ext/pfr/img/215/327-343-tennis-courts-broadlands-park.jpg" ,"Rating":"4.5"} },
{ "type": "Feature", "geometry": { "type": "Point", "coordinates": [ -79.520893711599996, 43.682042869299998 ] }, "properties": { "_id": 24, "ID": "813", "Name": "Buttonwood Park", "Type": "Public", "Lights": "Yes", "Courts": "3", "Phone": "311", "ClubName": null, "ClubWebsite": null, "ClubInfo": null, "LocationAddress": "30  Mulham Pl ", "WinterPlay": null, "url": "https://www.toronto.ca/ext/pfr/img/813/7414-tennis-courts-buttonwood-park.jpg" ,"Rating":"4.5"} },
{ "type": "Feature", "geometry": { "type": "Point", "coordinates": [ -79.318375209199999, 43.754769505200002 ] }, "properties": { "_id": 25, "ID": "16", "Name": "Cassandra Park", "Type": "Club", "Lights": "Yes", "Courts": "4", "Phone": "416-391-3962", "ClubName": "Parkway Valley Tennis Club", "ClubWebsite": "http://www.pvtc.ca", "ClubInfo": null, "LocationAddress": "230  Cassandra Blvd ", "WinterPlay": null, "url": "https://www.toronto.ca/ext/pfr/img/16/1187-tennis-court-one-cassandra-park.jpg" ,"Rating":"4.4"} },
{ "type": "Feature", "geometry": { "type": "Point", "coordinates": [ -79.429346398199996, 43.692042986600001 ] }, "properties": { "_id": 26, "ID": "629", "Name": "Cedarvale Park", "Type": "Public", "Lights": "Yes", "Courts": "4", "Phone": "311", "ClubName": null, "ClubWebsite": null, "ClubInfo": null, "LocationAddress": "443  Arlington Ave ", "WinterPlay": null, "url": "https://www.toronto.ca/ext/pfr/img/629/1.jpg" ,"Rating":"4.8"} },
{ "type": "Feature", "geometry": { "type": "Point", "coordinates": [ -79.515304999600005, 43.725124239800003 ] }, "properties": { "_id": 27, "ID": "632", "Name": "Chalkfarm Park", "Type": "Public", "Lights": "No", "Courts": "2", "Phone": "311", "ClubName": null, "ClubWebsite": null, "ClubInfo": null, "LocationAddress": "2230 Jane St ", "WinterPlay": "Yes", "url": "https://www.toronto.ca/ext/pfr/img/632/710-tennis-courts-chalkfarm-park.jpg" ,"Rating":"4.1"} },
{ "type": "Feature", "geometry": { "type": "Point", "coordinates": [ -79.444269056699994, 43.732136404199998 ] }, "properties": { "_id": 28, "ID": "2200", "Name": "Champlain Parkette", "Type": "Public", "Lights": "No", "Courts": "2", "Phone": "311", "ClubName": null, "ClubWebsite": null, "ClubInfo": null, "LocationAddress": "50  Champlain Blvd. ", "WinterPlay": null, "url": "https://lh3.googleusercontent.com/gps-cs-s/AC9h4nqitWaSlj84VTn1FUosVUDIDhpI-njVOwxKWbVNxq2qhVLcN6--ydbX01l0Rysy0n6YA2LvE2FNUzrc88jPkEhKs5pVLWSBpDVgQiPhDZkaKNjYGPJ4P5_xOehOSrVSvWl2IUst=s1360-w1360-h1020-rw" ,"Rating":"4.5"} },
{ "type": "Feature", "geometry": { "type": "Point", "coordinates": [ -79.140237820400003, 43.781667271700002 ] }, "properties": { "_id": 29, "ID": "540", "Name": "Charlottetown Park", "Type": "Club", "Lights": "Yes", "Courts": "3", "Phone": "416-284-3575", "ClubName": "Charlottetown Tennis Club", "ClubWebsite": "http://www.charlottetowntennis.com", "ClubInfo": null, "LocationAddress": "65  Charlottetown Blvd ", "WinterPlay": null, "url": "https://www.toronto.ca/ext/pfr/img/540/27729-tennis-court-one-charlottetown-park.jpg" ,"Rating":"4.2"} },
{ "type": "Feature", "geometry": { "type": "Point", "coordinates": [ -79.2876779339, 43.714296661600002 ] }, "properties": { "_id": 30, "ID": "2307", "Name": "Clairlea Park", "Type": "Public", "Lights": "No", "Courts": "2", "Phone": "311", "ClubName": null, "ClubWebsite": null, "ClubInfo": null, "LocationAddress": "45  Fairfax Cres ", "WinterPlay": null, "url": "https://www.toronto.ca/ext/pfr/img/2307/74144-tennis-court-clairlea-park.jpg" ,"Rating":"4.3"} },
{ "type": "Feature", "geometry": { "type": "Point", "coordinates": [ -79.355089395600004, 43.808416103900001 ] }, "properties": { "_id": 31, "ID": "493", "Name": "Cliffwood Park", "Type": "Public", "Lights": "No", "Courts": "3", "Phone": "311", "ClubName": null, "ClubWebsite": null, "ClubInfo": null, "LocationAddress": "280  Cliffwood Rd ", "WinterPlay": null, "url": "https://lh3.googleusercontent.com/gps-cs-s/AC9h4no6cuTW-bz9bt68gps2FFmbdbybkkiO9SdEDtqYcw5B5lvgdfuqV_xGEVx8qH0zS0y2ljAmolpD4pmVX8cAwcSkZsspuH8zmXZ3W1i65udtUkujOyKIM9CWSKyPCPvksDCLQiSV=s1360-w1360-h1020-rw" ,"Rating":"4.4"} },
{ "type": "Feature", "geometry": { "type": "Point", "coordinates": [ -79.544552361800001, 43.633848459500001 ] }, "properties": { "_id": 32, "ID": "935", "Name": "Cloverdale Park", "Type": "Public", "Lights": "Yes", "Courts": "3", "Phone": "311", "ClubName": null, "ClubWebsite": null, "ClubInfo": null, "LocationAddress": "85  Shaver Ave S", "WinterPlay": "Yes", "url": "https://tennispronow.com/courts/wp-content/uploads/2024/04/hff4tosnei6d7nh7clit.png" ,"Rating":"4.6"} },
{ "type": "Feature", "geometry": { "type": "Point", "coordinates": [ -79.329424822199996, 43.783223086500001 ] }, "properties": { "_id": 33, "ID": "494", "Name": "Clydesdale Park", "Type": "Club", "Lights": "Yes", "Courts": "4", "Phone": "311", "ClubName": "Pleasantview Tennis Club", "ClubWebsite": "http://www.pleasantviewtennis.com", "ClubInfo": null, "LocationAddress": "116  Clydesdale Dr ", "WinterPlay": null, "url": "https://www.toronto.ca/ext/pfr/img/494/781-tennis-court-one-clydesdale-park.jpg" ,"Rating":"4.2"} },
{ "type": "Feature", "geometry": { "type": "Point", "coordinates": [ -79.299813290100005, 43.689399199199997 ] }, "properties": { "_id": 34, "ID": "220", "Name": "Coleman Park", "Type": "Public", "Lights": "No", "Courts": "2", "Phone": "311", "ClubName": null, "ClubWebsite": null, "ClubInfo": null, "LocationAddress": "19  Coleman Ave ", "WinterPlay": null, "url": "https://i0.wp.com/urbaneer.com/wp-content/uploads/2021/02/photo-1576972405668-2d020a01cbfa.jpeg?w=870" ,"Rating":"4.2"} },
{ "type": "Feature", "geometry": { "type": "Point", "coordinates": [ -79.236147071299996, 43.7739195626 ] }, "properties": { "_id": 35, "ID": "2262", "Name": "Confederation Park", "Type": "Club", "Lights": "Yes", "Courts": "3", "Phone": "311", "ClubName": "Centennial Tennis Club", "ClubWebsite": null, "ClubInfo": null, "LocationAddress": "250  Dolly Varden Blvd ", "WinterPlay": null, "url": "https://www.toronto.ca/ext/pfr/img/2262/2.jpg" ,"Rating":"4.3"} },
{ "type": "Feature", "geometry": { "type": "Point", "coordinates": [ -79.330278616900003, 43.692947128199997 ] }, "properties": { "_id": 36, "ID": "2568", "Name": "Cosburn Park", "Type": "Club", "Lights": "Yes", "Courts": "5", "Phone": "311", "ClubName": null, "ClubWebsite": null, "ClubInfo": null, "LocationAddress": "115  Roosevelt Rd ", "WinterPlay": null, "url": "https://www.toronto.ca/ext/pfr/img/2568/62386-tennis-court-2-cosburn-park.jpg" ,"Rating":"5.0"} },
{ "type": "Feature", "geometry": { "type": "Point", "coordinates": [ -79.363259573400001, 43.798988140100001 ] }, "properties": { "_id": 37, "ID": "496", "Name": "Cresthaven Park", "Type": "Club", "Lights": "Yes", "Courts": "4", "Phone": "416-756-2929", "ClubName": "Hillcrest Tennis Club", "ClubWebsite": "http://www.hillcresttennisclub.ca", "ClubInfo": null, "LocationAddress": "37  Cresthaven Dr ", "WinterPlay": null, "url": "https://www.toronto.ca/ext/pfr/img/496/906-tennis-court-cresthaven-park.jpg" ,"Rating":"4.3"} },
{ "type": "Feature", "geometry": { "type": "Point", "coordinates": [ -79.371807146099997, 43.7996349111 ] }, "properties": { "_id": 38, "ID": "941", "Name": "Cummer Park", "Type": "Public", "Lights": "Yes", "Courts": "4", "Phone": "416-395-6072", "ClubName": null, "ClubWebsite": null, "ClubInfo": null, "LocationAddress": "823  Cummer Ave ", "WinterPlay": "Yes", "url": "https://lh3.googleusercontent.com/gps-cs-s/AC9h4noxgmoHzPfKTO5RnSnl8orGU8153K0Md8IIj5Y9dbEXDWrGk-TwjjBnVPrd2Mqk-aOrASx-u1JQDLcmx41KWDlhFN1mjAdUJU5_F1i3EdWs8g_EZdixsFYjQkKlcYLNalLSRxf6=s1360-w1360-h1020-rw" ,"Rating":"4.2"} },
{ "type": "Feature", "geometry": { "type": "Point", "coordinates": [ -79.433534710399996, 43.665215046599997 ] }, "properties": { "_id": 39, "ID": "86", "Name": "Dovercourt Park", "Type": "Public", "Lights": "No", "Courts": "2", "Phone": "311", "ClubName": null, "ClubWebsite": null, "ClubInfo": null, "LocationAddress": "155  Bartlett Ave ", "WinterPlay": "Yes", "url": "https://wahi.com/wp-content/uploads/dam/atlas/article-images/neighbourhood-spotlight/toronto-v2/dovercourt/dovercourt-recreation.jpeg/_jcr_content/renditions/cq5dam.web.1280.1280.jpeg" ,"Rating":"4.5"} },
{ "type": "Feature", "geometry": { "type": "Point", "coordinates": [ -79.368497112699998, 43.762755175099997 ] }, "properties": { "_id": 40, "ID": "501", "Name": "Dunlace Park", "Type": "Club", "Lights": "Yes", "Courts": "3", "Phone": "289-809-3061", "ClubName": "Dunlace Tennis Club", "ClubWebsite": "http://www.dunlacetennis.com", "ClubInfo": null, "LocationAddress": "28  Dunlace Dr ", "WinterPlay": null, "url": "https://www.toronto.ca/ext/pfr/img/501/908-914-tennis-dunlace-park.jpg" ,"Rating":"4.4"} },
{ "type": "Feature", "geometry": { "type": "Point", "coordinates": [ -79.451503740500002, 43.673623398099998 ] }, "properties": { "_id": 41, "ID": "514", "Name": "Earlscourt Park", "Type": "Public", "Lights": "Yes", "Courts": "1", "Phone": "311", "ClubName": null, "ClubWebsite": null, "ClubInfo": null, "LocationAddress": "1200  Lansdowne Ave ", "WinterPlay": null, "url": "https://www.toronto.ca/ext/pfr/img/514/tennis.jpg" ,"Rating":"4.4"} },
{ "type": "Feature", "geometry": { "type": "Point", "coordinates": [ -79.557311762, 43.642408174499998 ] }, "properties": { "_id": 42, "ID": "948", "Name": "East Mall Park", "Type": "Public", "Lights": "Yes", "Courts": "3", "Phone": "311", "ClubName": null, "ClubWebsite": null, "ClubInfo": null, "LocationAddress": "355  The East Mall ", "WinterPlay": "Yes", "url": "" ,"Rating":"4.5"} },
{ "type": "Feature", "geometry": { "type": "Point", "coordinates": [ -79.499386432099996, 43.684962376599998 ] }, "properties": { "_id": 43, "ID": "9", "Name": "Eglinton Flats", "Type": "Public", "Lights": "Yes", "Courts": "13", "Phone": "311", "ClubName": null, "ClubWebsite": null, "ClubInfo": null, "LocationAddress": "101  Emmett Ave ", "WinterPlay": null, "url": "" ,"Rating":"4.3"} },
{ "type": "Feature", "geometry": { "type": "Point", "coordinates": [ -79.405328833599995, 43.707455346 ] }, "properties": { "_id": 44, "ID": "117", "Name": "Eglinton Park", "Type": "Public", "Lights": "Yes", "Courts": "2", "Phone": "416-392-6585", "ClubName": null, "ClubWebsite": null, "ClubInfo": null, "LocationAddress": "200  Eglinton Ave W", "WinterPlay": null, "url": "" ,"Rating":"4.3"} },
{ "type": "Feature", "geometry": { "type": "Point", "coordinates": [ -79.438092980199997, 43.745715853299998 ] }, "properties": { "_id": 45, "ID": "490", "Name": "Elie Wiesel Park", "Type": "Public", "Lights": "Yes", "Courts": "3", "Phone": "311", "ClubName": null, "ClubWebsite": null, "ClubInfo": null, "LocationAddress": "30  Palm Dr ", "WinterPlay": "Yes", "url": "https://www.toronto.ca/ext/pfr/img/490/490-tennis-court-3-elie-wiesel-park.jpg" ,"Rating":"4.3"} },
{ "type": "Feature", "geometry": { "type": "Point", "coordinates": [ -79.204748527299998, 43.739442829399998 ] }, "properties": { "_id": 46, "ID": "594", "Name": "Elizabeth Simcoe Park", "Type": "Club", "Lights": "Yes", "Courts": "4", "Phone": "647-228-5821", "ClubName": "Guildwood Tennis Club", "ClubWebsite": "http://www.guildwoodtennis.com", "ClubInfo": null, "LocationAddress": "180  Sylvan Ave ", "WinterPlay": null, "url": "https://www.toronto.ca/ext/pfr/img/594/1733-tennis-court-one-elizabeth-simcoe-park.jpg" ,"Rating":"4.6"} },
{ "type": "Feature", "geometry": { "type": "Point", "coordinates": [ -79.315724680599999, 43.675892791199999 ] }, "properties": { "_id": 47, "ID": "127", "Name": "Fairmount Park", "Type": "Public", "Lights": "Yes", "Courts": "4", "Phone": "311", "ClubName": null, "ClubWebsite": null, "ClubInfo": null, "LocationAddress": "1725  Gerrard St E", "WinterPlay": "Yes", "url": "https://www.toronto.ca/ext/pfr/img/127/647-tennis-court-fairmount-park.jpg" ,"Rating":"4.6"} },
{ "type": "Feature", "geometry": { "type": "Point", "coordinates": [ -79.327222314699995, 43.7648962727 ] }, "properties": { "_id": 48, "ID": "312", "Name": "Fenside Park", "Type": "Public", "Lights": "Yes", "Courts": "4", "Phone": "311", "ClubName": null, "ClubWebsite": null, "ClubInfo": null, "LocationAddress": "30  Slidell Cres ", "WinterPlay": "Yes", "url": "" ,"Rating":"4.3"} },
{ "type": "Feature", "geometry": { "type": "Point", "coordinates": [ -79.521598139899993, 43.750629912500003 ] }, "properties": { "_id": 49, "ID": "572", "Name": "Firgrove Park", "Type": "Public", "Lights": "No", "Courts": "3", "Phone": "311", "ClubName": null, "ClubWebsite": null, "ClubInfo": null, "LocationAddress": "254  Firgrove Cres ", "WinterPlay": "Yes", "url": "" ,"Rating":"4.2"} },
{ "type": "Feature", "geometry": { "type": "Point", "coordinates": [ -79.590639535700006, 43.721174163199997 ] }, "properties": { "_id": 50, "ID": "963", "Name": "Flagstaff Park", "Type": "Public", "Lights": "Yes", "Courts": "2", "Phone": "311", "ClubName": null, "ClubWebsite": null, "ClubInfo": null, "LocationAddress": "42  Mercury Rd ", "WinterPlay": null, "url": "https://www.toronto.ca/ext/pfr/img/963/27300-27301-tennis-court-flagstaff-park-2.jpg" ,"Rating":"4.2"} },
{ "type": "Feature", "geometry": { "type": "Point", "coordinates": [ -79.498977567599994, 43.761960484100001 ] }, "properties": { "_id": 51, "ID": "593", "Name": "Fountainhead Park", "Type": "Club", "Lights": "Yes", "Courts": "3", "Phone": "416-496-0225", "ClubName": "Fountainhead Community Tennis Club", "ClubWebsite": "http://www.nyta.org/fountainhead_new.html", "ClubInfo": null, "LocationAddress": "445  Sentinel Rd ", "WinterPlay": null, "url": "" ,"Rating":"4.3"} },
{ "type": "Feature", "geometry": { "type": "Point", "coordinates": [ -79.594631098199997, 43.754527765399999 ] }, "properties": { "_id": 52, "ID": "843", "Name": "Gihon Spring Park", "Type": "Public", "Lights": "Yes", "Courts": "2", "Phone": "311", "ClubName": null, "ClubWebsite": null, "ClubInfo": null, "LocationAddress": "75  Gihon Spring Dr ", "WinterPlay": "Yes", "url": "" ,"Rating":"4.3"} },
{ "type": "Feature", "geometry": { "type": "Point", "coordinates": [ -79.552880323099998, 43.650823280799997 ] }, "properties": { "_id": 53, "ID": "915", "Name": "Glen Park", "Type": "Public", "Lights": "Yes", "Courts": "2", "Phone": "311", "ClubName": null, "ClubWebsite": null, "ClubInfo": null, "LocationAddress": "44 A Eastglen Cres ", "WinterPlay": null, "url": "" ,"Rating":"4.6"} },
{ "type": "Feature", "geometry": { "type": "Point", "coordinates": [ -79.399924534199997, 43.761528170799998 ] }, "properties": { "_id": 54, "ID": "640", "Name": "Glendora Park", "Type": "Public", "Lights": "Yes", "Courts": "2", "Phone": "311", "ClubName": null, "ClubWebsite": null, "ClubInfo": null, "LocationAddress": "201  Glendora Ave ", "WinterPlay": "Yes", "url": "https://lh3.googleusercontent.com/gps-cs-s/AC9h4nqVGbLAeA43IwkP74wqjWO9sWUkLwTXU_qD-g8Jjh-TlOdYTEh1LVVnkBJ3mo-zpgNyYVfuyW1bfvutXPC0AcL3TEVYNCzqe2pMB4XTBK32xPlnrWVRQqiMCqXpF9m6kk7h4vd9=s1360-w1360-h1020-rw" ,"Rating":"4.5"} },
{ "type": "Feature", "geometry": { "type": "Point", "coordinates": [ -79.422394205399996, 43.790873149600003 ] }, "properties": { "_id": 55, "ID": "644", "Name": "Goulding Park", "Type": "Public", "Lights": "No", "Courts": "3", "Phone": "311", "ClubName": null, "ClubWebsite": null, "ClubInfo": null, "LocationAddress": "80  Patricia Ave ", "WinterPlay": "Yes", "url": "https://www.toronto.ca/ext/pfr/img/644/644-tennis-courts-goulding-park.jpg","Rating":"4.5"} },
{ "type": "Feature", "geometry": { "type": "Point", "coordinates": [ -79.562176656700004, 43.751942337 ] }, "properties": { "_id": 56, "ID": "645", "Name": "Gracedale Park", "Type": "Public", "Lights": "No", "Courts": "3", "Phone": "311", "ClubName": null, "ClubWebsite": null, "ClubInfo": null, "LocationAddress": "176  Gracedale Blvd ", "WinterPlay": "Yes", "url": "https://www.toronto.ca/ext/pfr/img/645/2764-tennis-court-gracedale-park.jpg" ,"Rating":"4.3"} },
{ "type": "Feature", "geometry": { "type": "Point", "coordinates": [ -79.491315660500007, 43.751925592299997 ] }, "properties": { "_id": 57, "ID": "648", "Name": "Grandravine Park", "Type": "Public", "Lights": "No", "Courts": "3", "Phone": "311", "ClubName": null, "ClubWebsite": null, "ClubInfo": null, "LocationAddress": "23  Grandravine Dr ", "WinterPlay": null, "url": "https://www.toronto.ca/ext/pfr/img/648/2839-2838-tennis-courts-grandravine-park.jpg" ,"Rating":"4.3"} },
{ "type": "Feature", "geometry": { "type": "Point", "coordinates": [ -79.342043225899999, 43.762956303300001 ] }, "properties": { "_id": 58, "ID": "649", "Name": "Graydon Hall Park", "Type": "Public", "Lights": "Yes", "Courts": "3", "Phone": "311", "ClubName": null, "ClubWebsite": null, "ClubInfo": null, "LocationAddress": "215  Graydon Hall Dr ", "WinterPlay": null, "url": "https://wahi.com/wp-content/uploads/2023/01/graydon-hall-recreation.jpeg" ,"Rating":"4.5"} },
{ "type": "Feature", "geometry": { "type": "Point", "coordinates": [ -79.4199866692, 43.7513187144 ] }, "properties": { "_id": 59, "ID": "651", "Name": "Gwendolen Park", "Type": "Club", "Lights": "Yes", "Courts": "3", "Phone": "416-730-0429", "ClubName": "Gwendolen Tennis Club", "ClubWebsite": "http://www.gwendolentennis.com", "ClubInfo": null, "LocationAddress": "3  Gwendolen Cres ", "WinterPlay": null, "url": "" ,"Rating":"4.5"} },
{ "type": "Feature", "geometry": { "type": "Point", "coordinates": [ -79.4199866692, 43.7513187144 ] }, "properties": { "_id": 60, "ID": "651", "Name": "Gwendolen Park", "Type": "Public", "Lights": "Yes", "Courts": "1", "Phone": "311", "ClubName": null, "ClubWebsite": null, "ClubInfo": null, "LocationAddress": "3  Gwendolen Cres ", "WinterPlay": null, "url": "" ,"Rating":"4.5"} },
{ "type": "Feature", "geometry": { "type": "Point", "coordinates": [ -79.356629149, 43.767712082300001 ] }, "properties": { "_id": 61, "ID": "654", "Name": "Havenbrook Park", "Type": "Club", "Lights": "Yes", "Courts": "4", "Phone": "416-493-7675", "ClubName": "Henry Farm Tennis Club", "ClubWebsite": "http://www.henryfarmtennisclub.ca", "ClubInfo": null, "LocationAddress": "15  Havenbrook Blvd. ", "WinterPlay": null, "url": "https://www.toronto.ca/ext/pfr/img/654/2726-tennis-court-one-havenbrook-park.jpg" ,"Rating":"4.5"} },
{ "type": "Feature", "geometry": { "type": "Point", "coordinates": [ -79.383061748800003, 43.770857553900001 ] }, "properties": { "_id": 62, "ID": "2365", "Name": "Hawksbury Park", "Type": "Club", "Lights": "Yes", "Courts": "6", "Phone": "647-974-5499", "ClubName": "Bayview Village Tennis Club", "ClubWebsite": "http://www.bayviewvillagetennis.com", "ClubInfo": null, "LocationAddress": "1 A Hawksbury Dr ", "WinterPlay": null, "url": "https://www.toronto.ca/ext/pfr/img/2365/2746-2748-tennis-courts-hawksbury-park.jpg" ,"Rating":"4.1"} },
{ "type": "Feature", "geometry": { "type": "Point", "coordinates": [ -79.420751429899994, 43.7814751015 ] }, "properties": { "_id": 63, "ID": "659", "Name": "Hendon Park", "Type": "Public", "Lights": "Yes", "Courts": "4", "Phone": "311", "ClubName": null, "ClubWebsite": null, "ClubInfo": null, "LocationAddress": "50  Hendon Ave ", "WinterPlay": null, "url": "","Rating":"4.5"} },
{ "type": "Feature", "geometry": { "type": "Point", "coordinates": [ -79.177299397799999, 43.769284243800001 ] }, "properties": { "_id": 64, "ID": "2025", "Name": "Heron Park", "Type": "Club", "Lights": "Yes", "Courts": "5", "Phone": "416-282-4842", "ClubName": "Heron Park Tennis Club", "ClubWebsite": "http://www.heronparktennis.com", "ClubInfo": null, "LocationAddress": "292   Manse Rd ", "WinterPlay": null, "url": "https://www.toronto.ca/ext/pfr/img/2025/3.jpg" ,"Rating":"4.3"} },
{ "type": "Feature", "geometry": { "type": "Point", "coordinates": [ -79.462835371799997, 43.646802124200001 ] }, "properties": { "_id": 65, "ID": "77", "Name": "High Park", "Type": "Public", "Lights": "Yes", "Courts": "7", "Phone": "416-392-7807", "ClubName": null, "ClubWebsite": null, "ClubInfo": null, "LocationAddress": "1873  Bloor St W", "WinterPlay": "Yes", "url": "https://www.toronto.ca/ext/pfr/img/77/300-sport-pad-1-high-park.jpg" ,"Rating":"4.7"} },
{ "type": "Feature", "geometry": { "type": "Point", "coordinates": [ -79.462835371799997, 43.646802124200001 ] }, "properties": { "_id": 66, "ID": "77", "Name": "High Park", "Type": "Club", "Lights": "Yes", "Courts": "7", "Phone": "416-769-5600", "ClubName": "Howard Park Tennis Club", "ClubWebsite": "http://www.howardparktennis.com", "ClubInfo": null, "LocationAddress": "1873  Bloor St W", "WinterPlay": "Yes", "url": "" ,"Rating":"4.7"} },
{ "type": "Feature", "geometry": { "type": "Point", "coordinates": [ -79.424525932600005, 43.675984193300003 ] }, "properties": { "_id": 67, "ID": "79", "Name": "Hillcrest Park", "Type": "Club", "Lights": "Yes", "Courts": "4", "Phone": "416 654 6756", "ClubName": "Wychwood Tennis Club", "ClubWebsite": "http://www.wychwoodtennis.ca", "ClubInfo": null, "LocationAddress": "950  Davenport Rd ", "WinterPlay": "Yes", "url": "https://www.toronto.ca/ext/pfr/img/79/7777-7779-tennis-court-hillcrest-park.jpg" ,"Rating":"4.6"} },
{ "type": "Feature", "geometry": { "type": "Point", "coordinates": [ -79.373753370499998, 43.710603500300003 ] }, "properties": { "_id": 68, "ID": "424", "Name": "Howard Talbot Park", "Type": "Public", "Lights": "No", "Courts": "2", "Phone": "311", "ClubName": null, "ClubWebsite": null, "ClubInfo": null, "LocationAddress": "635  Eglinton Ave E", "WinterPlay": null, "url": "https://www.toronto.ca/ext/pfr/img/424/424-tennis-courts-lot-howard-talbot-park.jpg" ,"Rating":"4.4"} },
{ "type": "Feature", "geometry": { "type": "Point", "coordinates": [ -79.525418559, 43.764938627299998 ] }, "properties": { "_id": 69, "ID": "663", "Name": "Hullmar Park", "Type": "Public", "Lights": "Yes", "Courts": "3", "Phone": "311", "ClubName": null, "ClubWebsite": null, "ClubInfo": null, "LocationAddress": "97  Hullmar Dr ", "WinterPlay": "Yes", "url": "https://www.toronto.ca/ext/pfr/img/663/663-tennis-courts-hullmar-park.jpg" ,"Rating":"4.1"} },
{ "type": "Feature", "geometry": { "type": "Point", "coordinates": [ -79.525142404500002, 43.664996846699999 ] }, "properties": { "_id": 70, "ID": "1012", "Name": "Humber Valley Park", "Type": "Public", "Lights": "Yes", "Courts": "4", "Phone": "311", "ClubName": null, "ClubWebsite": null, "ClubInfo": null, "LocationAddress": "54  Anglesey Blvd ", "WinterPlay": null, "url": "" ,"Rating":"4.5"} },
{ "type": "Feature", "geometry": { "type": "Point", "coordinates": [ -79.622461794200007, 43.724968649899999 ] }, "properties": { "_id": 71, "ID": "936", "Name": "Indian Line Park", "Type": "Public", "Lights": "Yes", "Courts": "2", "Phone": "311", "ClubName": null, "ClubWebsite": null, "ClubInfo": null, "LocationAddress": "655  Humberwood Blvd ", "WinterPlay": null, "url": "" ,"Rating":"4.4"} },
{ "type": "Feature", "geometry": { "type": "Point", "coordinates": [ -79.267320076499999, 43.803747715 ] }, "properties": { "_id": 72, "ID": "686", "Name": "Iroquois Park", "Type": "Club", "Lights": "No", "Courts": "3", "Phone": "311", "ClubName": "Iroquois Tennis Club", "ClubWebsite": "http://www.iroquoistennisclub.ca", "ClubInfo": null, "LocationAddress": "295  Chartland Blvd S", "WinterPlay": null, "url": "https://www.toronto.ca/ext/pfr/img/686/5.jpg","Rating":"4.2"} },
{ "type": "Feature", "geometry": { "type": "Point", "coordinates": [ -79.455221513300003, 43.761776833900001 ] }, "properties": { "_id": 73, "ID": "665", "Name": "Irving W. Chapley Park", "Type": "Public", "Lights": "Yes", "Courts": "2", "Phone": "311", "ClubName": null, "ClubWebsite": null, "ClubInfo": null, "LocationAddress": "205  Wilmington Ave ", "WinterPlay": "Yes", "url": "" ,"Rating":"4.3"} },
{ "type": "Feature", "geometry": { "type": "Point", "coordinates": [ -79.494922617300006, 43.630240695799998 ] }, "properties": { "_id": 74, "ID": "127", "Name": "Jeff Healey Park", "Type": "Public", "Lights": "Yes", "Courts": "2", "Phone": "311", "ClubName": null, "ClubWebsite": null, "ClubInfo": null, "LocationAddress": "1  Delroy Dr ", "WinterPlay": "Yes", "url": "" ,"Rating":"4.6"} },
{ "type": "Feature", "geometry": { "type": "Point", "coordinates": [ -79.344742415, 43.661173501599997 ] }, "properties": { "_id": 75, "ID": "155", "Name": "Jimmie Simpson Park", "Type": "Public", "Lights": "No", "Courts": "2", "Phone": "311", "ClubName": null, "ClubWebsite": null, "ClubInfo": null, "LocationAddress": "870  Queen St E", "WinterPlay": "Yes", "url": "https://www.toronto.ca/ext/pfr/img/155/40335-sport-pad-jimmie-simpson-park.jpg" ,"Rating":"4.5"} },
{ "type": "Feature", "geometry": { "type": "Point", "coordinates": [ -79.319930574099999, 43.664698750699998 ] }, "properties": { "_id": 76, "ID": "67", "Name": "Jonathan Ashbridge Park", "Type": "Public", "Lights": "No", "Courts": "2", "Phone": "311", "ClubName": null, "ClubWebsite": null, "ClubInfo": null, "LocationAddress": "1515  Queen St E", "WinterPlay": "Yes", "url": "https://www.toronto.ca/ext/pfr/img/67/69592-69593-tennis-courts-outdoor-jonathan-ashbridge-park.jpg" ,"Rating":"4.5"} },
{ "type": "Feature", "geometry": { "type": "Point", "coordinates": [ -79.3885304569, 43.700693895500002 ] }, "properties": { "_id": 77, "ID": "78", "Name": "June Rowlands Park", "Type": "Club", "Lights": "Yes", "Courts": "6", "Phone": "416-481-6569", "ClubName": "Davisville Tennis Club", "ClubWebsite": "http://www.davisvilletennisclub.com", "ClubInfo": null, "LocationAddress": "220  Davisville Ave ", "WinterPlay": null, "url": "https://www.toronto.ca/ext/pfr/img/78/7766-7771-tennis-court-june-rowlands-park.jpg" ,"Rating":"4.6"} },
{ "type": "Feature", "geometry": { "type": "Point", "coordinates": [ -79.5543427124, 43.699166732099997 ] }, "properties": { "_id": 78, "ID": "959", "Name": "Kingsview Park", "Type": "Public", "Lights": "No", "Courts": "2", "Phone": "311", "ClubName": null, "ClubWebsite": null, "ClubInfo": null, "LocationAddress": "46 Kingsview Blvd ", "WinterPlay": null, "url": "" ,"Rating":"4.3"} },
{ "type": "Feature", "geometry": { "type": "Point", "coordinates": [ -79.361675451099998, 43.755613951800001 ] }, "properties": { "_id": 79, "ID": "672", "Name": "Kirkwood Park", "Type": "Public", "Lights": "Yes", "Courts": "4", "Phone": "311", "ClubName": null, "ClubWebsite": null, "ClubInfo": null, "LocationAddress": "25  Kirkwood Rd. ", "WinterPlay": "Yes", "url": "" ,"Rating":"4.2"} },
{ "type": "Feature", "geometry": { "type": "Point", "coordinates": [ -79.3050267039999, 43.805449053 ] }, "properties": { "_id": 80, "ID": "699", "Name": "L'Amoreaux Tennis Centre", "Type": "Club", "Lights": "Yes", "Courts": "5", "Phone": "416-396-4041", "ClubName": "Scarborough Winter Tennis Club", "ClubWebsite": "http://www.swtc.ca", "ClubInfo": null, "LocationAddress": "300  Silver Springs Blvd ", "WinterPlay": null, "url": "https://www.toronto.ca/ext/pfr/img/699/6.jpg" ,"Rating":"3.9"} },
{ "type": "Feature", "geometry": { "type": "Point", "coordinates": [ -79.5280276883, 43.6001318064 ] }, "properties": { "_id": 81, "ID": "1029", "Name": "Laburnham Park", "Type": "Public", "Lights": "Yes", "Courts": "2", "Phone": "311", "ClubName": null, "ClubWebsite": null, "ClubInfo": null, "LocationAddress": "60  Laburnham Ave ", "WinterPlay": "Yes", "url": "" ,"Rating":"4.4"} },
{ "type": "Feature", "geometry": { "type": "Point", "coordinates": [ -79.442602197100001, 43.634823359499997 ] }, "properties": { "_id": 82, "ID": "112", "Name": "Lakeshore Boulevard Parklands", "Type": "Public", "Lights": "No", "Courts": "4", "Phone": "311", "ClubName": null, "ClubWebsite": null, "ClubInfo": null, "LocationAddress": "1389  Lake Shore Blvd W", "WinterPlay": "Yes", "url": "" ,"Rating":"4.7"} },
{ "type": "Feature", "geometry": { "type": "Point", "coordinates": [ -79.507806291700007, 43.657582550800001 ] }, "properties": { "_id": 83, "ID": "847", "Name": "Lambton - Kingsway Park", "Type": "Public", "Lights": "No", "Courts": "2", "Phone": "311", "ClubName": null, "ClubWebsite": null, "ClubInfo": null, "LocationAddress": "37  Marquis Ave ", "WinterPlay": null, "url": "" ,"Rating":"4.6"} },
{ "type": "Feature", "geometry": { "type": "Point", "coordinates": [ -79.548674056400003, 43.747515795799998 ] }, "properties": { "_id": 84, "ID": "674", "Name": "Lanyard Park", "Type": "Public", "Lights": "No", "Courts": "3", "Phone": "311", "ClubName": null, "ClubWebsite": null, "ClubInfo": null, "LocationAddress": "138  Lanyard Rd. ", "WinterPlay": "Yes", "url": "" ,"Rating":"4.3"} },
{ "type": "Feature", "geometry": { "type": "Point", "coordinates": [ -79.399971891500002, 43.722205687799999 ] }, "properties": { "_id": 85, "ID": "119", "Name": "Lawrence Park Ravine", "Type": "Club", "Lights": "Yes", "Courts": "3", "Phone": "311", "ClubName": "Lawrence Park Tennis Club", "ClubWebsite": "http://www.lawrenceparktennisclub.ca", "ClubInfo": null, "LocationAddress": "51 Alexander Muir Rd. ", "WinterPlay": null, "url": "https://www.toronto.ca/ext/pfr/img/119/5606-8486-tennis-courts-lawrence-park-ravine.jpg" ,"Rating":"4.8"} },
{ "type": "Feature", "geometry": { "type": "Point", "coordinates": [ -79.35009806, 43.702196295699999 ] }, "properties": { "_id": 86, "ID": "425", "Name": "Leaside Park", "Type": "Club", "Lights": "Yes", "Courts": "6", "Phone": "416-429-7108", "ClubName": "Thorncliffe Park Tennis Club", "ClubWebsite": "http://www.tptc.ca", "ClubInfo": null, "LocationAddress": "5  Leaside Park Dr ", "WinterPlay": null, "url": "https://www.toronto.ca/ext/pfr/img/425/26706-26711-tennis-courts-leaside-park.jpg" ,"Rating":"4.4"} },
{ "type": "Feature", "geometry": { "type": "Point", "coordinates": [ -79.407939584600001, 43.797688386499999 ] }, "properties": { "_id": 87, "ID": "681", "Name": "Lillian Park", "Type": "Club", "Lights": "Yes", "Courts": "3", "Phone": "416-512-7432", "ClubName": "Newtonbrook Tennis Club", "ClubWebsite": "http://www.newtonbrooktennis.com", "ClubInfo": null, "LocationAddress": "227  Otonabee Ave ", "WinterPlay": null, "url": "" ,"Rating":"4.4"} },
{ "type": "Feature", "geometry": { "type": "Point", "coordinates": [ -79.514829463699996, 43.638333577499999 ] }, "properties": { "_id": 88, "ID": "922", "Name": "Lora Hill Park", "Type": "Club", "Lights": "Yes", "Courts": "2", "Phone": "311", "ClubName": null, "ClubWebsite": null, "ClubInfo": null, "LocationAddress": "36 Fernalroy Blvd ", "WinterPlay": "Yes", "url": "" ,"Rating":"4.5"} },
{ "type": "Feature", "geometry": { "type": "Point", "coordinates": [ -79.410823276599999, 43.714921109400002 ] }, "properties": { "_id": 89, "ID": "138", "Name": "Lytton Park", "Type": "Club", "Lights": "Yes", "Courts": "3", "Phone": "416-312-5300", "ClubName": "Lytton Park", "ClubWebsite": "http://www.lyttonparktennis.com", "ClubInfo": null, "LocationAddress": "200  Lytton Blvd ", "WinterPlay": null, "url": "https://www.toronto.ca/ext/pfr/img/138/5639-7791-tennis-court-lytton-park.jpg" ,"Rating":"4.5"} },
{ "type": "Feature", "geometry": { "type": "Point", "coordinates": [ -79.230693157399998, 43.804847821700001 ] }, "properties": { "_id": 90, "ID": "708", "Name": "Major Abbas Ali Park", "Type": "Club", "Lights": "Yes", "Courts": "3", "Phone": "311", "ClubName": "Major Abbas Ali Park", "ClubWebsite": null, "ClubInfo": null, "LocationAddress": "180  Mclevin Ave ", "WinterPlay": null, "url": "https://www.toronto.ca/ext/pfr/img/708/1822-tennis-court-two-major-abbas-ali-park.jpg" ,"Rating":"4.3"} },
{ "type": "Feature", "geometry": { "type": "Point", "coordinates": [ -79.217175320400003, 43.809194092399999 ] }, "properties": { "_id": 91, "ID": "2593", "Name": "Malvern Park", "Type": "Public", "Lights": "Yes", "Courts": "3", "Phone": "311", "ClubName": null, "ClubWebsite": null, "ClubInfo": null, "LocationAddress": "36  Sewells Rd ", "WinterPlay": "Yes", "url": "https://www.toronto.ca/ext/pfr/img/2593/9296-tennis-court-1-malvern-park.jpg" ,"Rating":"4.2"} },
{ "type": "Feature", "geometry": { "type": "Point", "coordinates": [ -79.491300036400006, 43.619935502 ] }, "properties": { "_id": 92, "ID": "920", "Name": "Manchester Park", "Type": "Public", "Lights": "Yes", "Courts": "3", "Phone": "311", "ClubName": null, "ClubWebsite": null, "ClubInfo": null, "LocationAddress": "75  Manchester St ", "WinterPlay": "Yes", "url": "" ,"Rating":"4.3"} },
{ "type": "Feature", "geometry": { "type": "Point", "coordinates": [ -79.493453486500002, 43.7158024716 ] }, "properties": { "_id": 93, "ID": "688", "Name": "Maple Leaf Park", "Type": "Public", "Lights": "Yes", "Courts": "3", "Phone": "311", "ClubName": null, "ClubWebsite": null, "ClubInfo": null, "LocationAddress": "320 Culford Rd ", "WinterPlay": "Yes", "url": "https://www.toronto.ca/ext/pfr/img/688/3253-tennis-courts-maple-leaf-park.jpg" ,"Rating":"4.4"} },
{ "type": "Feature", "geometry": { "type": "Point", "coordinates": [ -79.563336835900003, 43.689165608700002 ] }, "properties": { "_id": 94, "ID": "849", "Name": "Martingrove Gardens Park", "Type": "Public", "Lights": "Yes", "Courts": "3", "Phone": "311", "ClubName": null, "ClubWebsite": null, "ClubInfo": null, "LocationAddress": "31  Lavington Dr ", "WinterPlay": null, "url": "" ,"Rating":"4.4"} },
{ "type": "Feature", "geometry": { "type": "Point", "coordinates": [ -79.295201344, 43.691845197799999 ] }, "properties": { "_id": 95, "ID": "2016", "Name": "Maryland Park", "Type": "Club", "Lights": "Yes", "Courts": "4", "Phone": "416-699-2412", "ClubName": "Dentonia Park Tennis Club", "ClubWebsite": "https://www.dentoniatennis.com", "ClubInfo": null, "LocationAddress": "19  Maryland Blvd ", "WinterPlay": "Yes", "url": "" ,"Rating":"4.3"} },
{ "type": "Feature", "geometry": { "type": "Point", "coordinates": [ -79.306528499899997, 43.753081444899998 ] }, "properties": { "_id": 96, "ID": "704", "Name": "Maryvale Park", "Type": "Club", "Lights": "Yes", "Courts": "3", "Phone": "416-878-5005", "ClubName": "Maryvale Tennis Club", "ClubWebsite": "http://www.maryvaletennis.blogspot.ca", "ClubInfo": null, "LocationAddress": "5  Trestleside Grv ", "WinterPlay": "Yes", "url": "https://www.toronto.ca/ext/pfr/img/704/27732-tennis-court-one-2-maryvale-park.jpg" ,"Rating":"4.5"} },
{ "type": "Feature", "geometry": { "type": "Point", "coordinates": [ -79.267608145500006, 43.779855561799998 ] }, "properties": { "_id": 97, "ID": "791", "Name": "McDairmid Woods Park", "Type": "Public", "Lights": "Yes", "Courts": "3", "Phone": "311", "ClubName": null, "ClubWebsite": null, "ClubInfo": null, "LocationAddress": "51  Rubic Cres ", "WinterPlay": "Yes", "url": "https://www.toronto.ca/ext/pfr/img/791/791-tennis-courts-mcdairmid-woods.jpg","Rating":"4.2"} },
{ "type": "Feature", "geometry": { "type": "Point", "coordinates": [ -79.280559462699998, 43.747302011400002 ] }, "properties": { "_id": 98, "ID": "2036", "Name": "McGregor Park", "Type": "Public", "Lights": "No", "Courts": "3", "Phone": "311", "ClubName": null, "ClubWebsite": null, "ClubInfo": null, "LocationAddress": "2231  Lawrence Ave E", "WinterPlay": "Yes", "url": "" ,"Rating":"4.2"} },
{ "type": "Feature", "geometry": { "type": "Point", "coordinates": [ -79.353286422300002, 43.798609791600001 ] }, "properties": { "_id": 99, "ID": "689", "Name": "Mcnicoll Park", "Type": "Public", "Lights": "Yes", "Courts": "3", "Phone": "311", "ClubName": null, "ClubWebsite": null, "ClubInfo": null, "LocationAddress": "215  Mcnicoll Ave ", "WinterPlay": null, "url": "https://img.p.mapq.st/?url=https://ir.4sqi.net/img/general/original/5890648_lXrfv9dkbsanahR8B-A6nWhcyFpiTFx-hn0Q4kQHPG4.jpg?w=3840&q=75" ,"Rating":"4.4"} },
{ "type": "Feature", "geometry": { "type": "Point", "coordinates": [ -79.587818164200002, 43.641804541299997 ] }, "properties": { "_id": 100, "ID": "2486", "Name": "Mill Valley Park", "Type": "Public", "Lights": "No", "Courts": "2", "Phone": "311", "ClubName": null, "ClubWebsite": null, "ClubInfo": null, "LocationAddress": "412  Mill Rd ", "WinterPlay": null, "url": "" ,"Rating":"3.3"} },
{ "type": "Feature", "geometry": { "type": "Point", "coordinates": [ -79.578437018700001, 43.631764458600003 ] }, "properties": { "_id": 101, "ID": "853", "Name": "Millwood Park", "Type": "Public", "Lights": "Yes", "Courts": "3", "Phone": "311", "ClubName": null, "ClubWebsite": null, "ClubInfo": null, "LocationAddress": "4370  Bloor St W", "WinterPlay": null, "url": "" ,"Rating":"4.2"} },
{ "type": "Feature", "geometry": { "type": "Point", "coordinates": [ -79.493668321499996, 43.609813509600002 ] }, "properties": { "_id": 102, "ID": "854", "Name": "Mimico Memorial Park", "Type": "Club", "Lights": "Yes", "Courts": "3", "Phone": "311", "ClubName": "Mimico Tennis Club", "ClubWebsite": "http://www.mimicotennisclub.org", "ClubInfo": null, "LocationAddress": "75  Hillside Ave ", "WinterPlay": null, "url": "https://www.toronto.ca/ext/pfr/img/854/7368-tennis-court-1-clay-mimico-memorial-park.jpg" ,"Rating":"4.5"} },
{ "type": "Feature", "geometry": { "type": "Point", "coordinates": [ -79.435343826099995, 43.791579021799997 ] }, "properties": { "_id": 103, "ID": "695", "Name": "Moore Park - North York", "Type": "Public", "Lights": "No", "Courts": "3", "Phone": "311", "ClubName": null, "ClubWebsite": null, "ClubInfo": null, "LocationAddress": "110  Cactus Ave ", "WinterPlay": null, "url": "" ,"Rating":"4.0"} },
{ "type": "Feature", "geometry": { "type": "Point", "coordinates": [ -79.382252466300002, 43.693503972199998 ] }, "properties": { "_id": 104, "ID": "168", "Name": "Moorevale Park", "Type": "Club", "Lights": "Yes", "Courts": "5", "Phone": "647-556-7877", "ClubName": "Moore Park Tennis Club", "ClubWebsite": "http://www.mooretennis.com", "ClubInfo": null, "LocationAddress": "175  Moore Ave ", "WinterPlay": null, "url": "https://www.toronto.ca/ext/pfr/img/168/6.jpg" ,"Rating":"4.7"} },
{ "type": "Feature", "geometry": { "type": "Point", "coordinates": [ -79.371075831599995, 43.655067778099998 ] }, "properties": { "_id": 105, "ID": "177", "Name": "Moss Park", "Type": "Public", "Lights": "Yes", "Courts": "1", "Phone": "311", "ClubName": null, "ClubWebsite": null, "ClubInfo": null, "LocationAddress": "150  Sherbourne St ", "WinterPlay": null, "url": "https://www.toronto.ca/ext/pfr/img/177/11951-tennis-court-moss-park.jpg" ,"Rating":"3.3"} },
{ "type": "Feature", "geometry": { "type": "Point", "coordinates": [ -79.244794990100004, 43.769708260500003 ] }, "properties": { "_id": 106, "ID": "726", "Name": "North Bendale Park", "Type": "Club", "Lights": "Yes", "Courts": "3", "Phone": "416-438-4913", "ClubName": "North Bendale Tennis Club", "ClubWebsite": "http://www.northbendaletennisclub.org", "ClubInfo": null, "LocationAddress": "40  Erinlea Cres ", "WinterPlay": null, "url": "https://encrypted-tbn0.gstatic.com/images?q=tbn:ANd9GcQoMyzxLMESPyPk94GZKunGAdwnzqllSNpCqw&s" ,"Rating":"4.6"} },
{ "type": "Feature", "geometry": { "type": "Point", "coordinates": [ -79.473961303799996, 43.716407342899998 ] }, "properties": { "_id": 107, "ID": "700", "Name": "North Park", "Type": "Public", "Lights": "No", "Courts": "2", "Phone": "311", "ClubName": null, "ClubWebsite": null, "ClubInfo": null, "LocationAddress": "587 Rustic Rd ", "WinterPlay": null, "url": "" ,"Rating":"4.5"} },
{ "type": "Feature", "geometry": { "type": "Point", "coordinates": [ -79.303754300700007, 43.682309341900002 ] }, "properties": { "_id": 108, "ID": "228", "Name": "Norwood Park", "Type": "Public", "Lights": "No", "Courts": "5", "Phone": "311", "ClubName": null, "ClubWebsite": null, "ClubInfo": null, "LocationAddress": "16 Norwood Rd ", "WinterPlay": "Yes", "url": "" ,"Rating":"4.4"} },
{ "type": "Feature", "geometry": { "type": "Point", "coordinates": [ -79.490238692899993, 43.6508546958 ] }, "properties": { "_id": 109, "ID": "1884", "Name": "Old Mill Site Park", "Type": "Club", "Lights": "Yes", "Courts": "4", "Phone": "416-763-3088", "ClubName": "York Old Mill Tennis Club", "ClubWebsite": "http://www.oldmilltennis.com", "ClubInfo": null, "LocationAddress": "5  Catherine St ", "WinterPlay": null, "url": "" ,"Rating":"4.7"} },
{ "type": "Feature", "geometry": { "type": "Point", "coordinates": [ -79.351006866299997, 43.781490886 ] }, "properties": { "_id": 110, "ID": "937", "Name": "Oriole Park - North York", "Type": "Club", "Lights": "Yes", "Courts": "4", "Phone": "311", "ClubName": "Oriole Park - North York", "ClubWebsite": null, "ClubInfo": null, "LocationAddress": "2955  Don Mills Rd ", "WinterPlay": null, "url": "" ,"Rating":"4.3"} },
{ "type": "Feature", "geometry": { "type": "Point", "coordinates": [ -79.400237963, 43.697245733199999 ] }, "properties": { "_id": 111, "ID": "245", "Name": "Oriole Park - Toronto", "Type": "Public", "Lights": "No", "Courts": "2", "Phone": "311", "ClubName": null, "ClubWebsite": null, "ClubInfo": null, "LocationAddress": "201  Oriole Pkwy ", "WinterPlay": "Yes", "url": "" ,"Rating":"4.6"} },
{ "type": "Feature", "geometry": { "type": "Point", "coordinates": [ -79.508695102100006, 43.615551698200001 ] }, "properties": { "_id": 112, "ID": "857", "Name": "Ourland Park", "Type": "Public", "Lights": "Yes", "Courts": "2", "Phone": "311", "ClubName": null, "ClubWebsite": null, "ClubInfo": null, "LocationAddress": "18  Ourland Ave ", "WinterPlay": "Yes", "url": "" ,"Rating":"4.4"} },
{ "type": "Feature", "geometry": { "type": "Point", "coordinates": [ -79.495521050099995, 43.6391576953 ] }, "properties": { "_id": 113, "ID": "858", "Name": "Park Lawn Park", "Type": "Public", "Lights": "Yes", "Courts": "4", "Phone": "416-394-8491", "ClubName": null, "ClubWebsite": null, "ClubInfo": null, "LocationAddress": "330  Park Lawn Rd ", "WinterPlay": null, "url": "https://www.toronto.ca/ext/pfr/img/858/70143-70154-tennis-court-park-lawn-park.jpg" ,"Rating":"4.4"} },
{ "type": "Feature", "geometry": { "type": "Point", "coordinates": [ -79.517616118099994, 43.713375496399998 ] }, "properties": { "_id": 114, "ID": "723", "Name": "Pelmo Park", "Type": "Public", "Lights": "Yes", "Courts": "3", "Phone": "311", "ClubName": null, "ClubWebsite": null, "ClubInfo": null, "LocationAddress": "171  Pellatt Ave ", "WinterPlay": "Yes", "url": "https://encrypted-tbn0.gstatic.com/images?q=tbn:ANd9GcR-zoimUVZ0GylW2RR8gO0nDOQnZ1ECfuj_eA&s" ,"Rating":"4.4"} },
{ "type": "Feature", "geometry": { "type": "Point", "coordinates": [ -79.544130717800002, 43.7161585765 ] }, "properties": { "_id": 115, "ID": "859", "Name": "Pine Point Park", "Type": "Public", "Lights": "Yes", "Courts": "2", "Phone": "311", "ClubName": null, "ClubWebsite": null, "ClubInfo": null, "LocationAddress": "4  Conan Rd ", "WinterPlay": "Yes", "url": "" ,"Rating":"4.3"} },
{ "type": "Feature", "geometry": { "type": "Point", "coordinates": [ -79.544130717800002, 43.7161585765 ] }, "properties": { "_id": 116, "ID": "859", "Name": "Pine Point Park", "Type": "Club", "Lights": "Yes", "Courts": "4", "Phone": "416-657-2529", "ClubName": "Pine Point Tennis Club", "ClubWebsite": "http://www.pinepointtennis.com", "ClubInfo": null, "LocationAddress": "4  Conan Rd ", "WinterPlay": "Yes", "url": "" ,"Rating":"4.3"} },
{ "type": "Feature", "geometry": { "type": "Point", "coordinates": [ -79.284118381200003, 43.697113850400001 ] }, "properties": { "_id": 117, "ID": "733", "Name": "Prairie Drive Park", "Type": "Public", "Lights": "Yes", "Courts": "3", "Phone": "311", "ClubName": null, "ClubWebsite": null, "ClubInfo": null, "LocationAddress": "101  Pharmacy Ave ", "WinterPlay": null, "url": "https://www.toronto.ca/ext/pfr/img/733/3.jpg" ,"Rating":"4.4"} },
{ "type": "Feature", "geometry": { "type": "Point", "coordinates": [ -79.498782857099997, 43.598841131199997 ] }, "properties": { "_id": 118, "ID": "924", "Name": "Prince of Wales Park", "Type": "Public", "Lights": "Yes", "Courts": "4", "Phone": "311", "ClubName": null, "ClubWebsite": null, "ClubInfo": null, "LocationAddress": "1  Third St ", "WinterPlay": null, "url": "" ,"Rating":"4.6"} },
{ "type": "Feature", "geometry": { "type": "Point", "coordinates": [ -79.5397461835, 43.673265352199998 ] }, "properties": { "_id": 119, "ID": "951", "Name": "Princess Anne Park", "Type": "Public", "Lights": "No", "Courts": "2", "Phone": "311", "ClubName": null, "ClubWebsite": null, "ClubInfo": null, "LocationAddress": "25 A Princess Margaret Blvd ", "WinterPlay": null, "url": "" ,"Rating":"4.3"} },
{ "type": "Feature", "geometry": { "type": "Point", "coordinates": [ -79.506403709300002, 43.627262257300004 ] }, "properties": { "_id": 120, "ID": "861", "Name": "Queensway Park", "Type": "Public", "Lights": "No", "Courts": "1", "Phone": "311", "ClubName": null, "ClubWebsite": null, "ClubInfo": null, "LocationAddress": "8  Avon Park Dr ", "WinterPlay": null, "url": "" ,"Rating":"4.5"} },
{ "type": "Feature", "geometry": { "type": "Point", "coordinates": [ -79.506403709300002, 43.627262257300004 ] }, "properties": { "_id": 121, "ID": "861", "Name": "Queensway Park", "Type": "None", "Lights": "None", "Courts": "1", "Phone": "311", "ClubName": null, "ClubWebsite": null, "ClubInfo": null, "LocationAddress": "8  Avon Park Dr ", "WinterPlay": null, "url": "" ,"Rating":"4.5"} },
{ "type": "Feature", "geometry": { "type": "Point", "coordinates": [ -79.393015044500004, 43.676415717200001 ] }, "properties": { "_id": 122, "ID": "167", "Name": "Ramsden Park", "Type": "Public", "Lights": "No", "Courts": "12", "Phone": "311", "ClubName": null, "ClubWebsite": null, "ClubInfo": null, "LocationAddress": "1020  Yonge St ", "WinterPlay": "Yes", "url": "https://www.toronto.ca/ext/pfr/img/167/3.jpg" ,"Rating":"4.6"} },
{ "type": "Feature", "geometry": { "type": "Point", "coordinates": [ -79.472248807300005, 43.642586538800003 ] }, "properties": { "_id": 123, "ID": "181", "Name": "Rennie Park", "Type": "Club", "Lights": "Yes", "Courts": "4", "Phone": "311", "ClubName": "The Swansea Tennis Club", "ClubWebsite": "http://www.swanseatennis.com", "ClubInfo": null, "LocationAddress": "1  Rennie Terr ", "WinterPlay": null, "url": "" ,"Rating":"4.6"} },
{ "type": "Feature", "geometry": { "type": "Point", "coordinates": [ -79.355740869200005, 43.670050466600003 ] }, "properties": { "_id": 124, "ID": "343", "Name": "Riverdale Park East", "Type": "Public", "Lights": "No", "Courts": "7", "Phone": " ", "ClubName": null, "ClubWebsite": null, "ClubInfo": null, "LocationAddress": "550  Broadview Ave ", "WinterPlay": "Yes", "url": "" ,"Rating":"4.8"} },
{ "type": "Feature", "geometry": { "type": "Point", "coordinates": [ -79.453975901700005, 43.786447041 ] }, "properties": { "_id": 125, "ID": "742", "Name": "Rockford Park", "Type": "Public", "Lights": "No", "Courts": "2", "Phone": "311", "ClubName": null, "ClubWebsite": null, "ClubInfo": null, "LocationAddress": "70  Rockford Rd ", "WinterPlay": null, "url": "" ,"Rating":"4.4"} },
{ "type": "Feature", "geometry": { "type": "Point", "coordinates": [ -79.3789306778, 43.682779464900001 ] }, "properties": { "_id": 126, "ID": "210", "Name": "Rosedale Park", "Type": "Club", "Lights": "No", "Courts": "8", "Phone": "416-922-7906", "ClubName": "The Rosedale Tennis Club", "ClubWebsite": "http://www.rosedaletennis.com", "ClubInfo": null, "LocationAddress": "20  Scholfield Ave ", "WinterPlay": null, "url": "https://www.toronto.ca/ext/pfr/img/210/1110-tennis-court-1-rosedale-park.jpg" ,"Rating":"4.5"} },
{ "type": "Feature", "geometry": { "type": "Point", "coordinates": [ -79.539126111599998, 43.658442650600001 ] }, "properties": { "_id": 127, "ID": "987", "Name": "Rosethorn Park", "Type": "Club", "Lights": "Yes", "Courts": "3", "Phone": "311", "ClubName": "The Rosethorn Tennis Club", "ClubWebsite": "http://www.rosethorntennis.com", "ClubInfo": null, "LocationAddress": "26  Remington Dr ", "WinterPlay": null, "url": "" ,"Rating":"4.4"} },
{ "type": "Feature", "geometry": { "type": "Point", "coordinates": [ -79.506869283699999, 43.594762763699997 ] }, "properties": { "_id": 128, "ID": "867", "Name": "Rotary Peace Park", "Type": "Public", "Lights": "No", "Courts": "2", "Phone": "311", "ClubName": null, "ClubWebsite": null, "ClubInfo": null, "LocationAddress": "25  Eleventh St ", "WinterPlay": "Yes", "url": "" ,"Rating":"4.6"} },
{ "type": "Feature", "geometry": { "type": "Point", "coordinates": [ -79.605292347200006, 43.752791322699998 ] }, "properties": { "_id": 129, "ID": "878", "Name": "Royal Crest Park", "Type": "Public", "Lights": "Yes", "Courts": "3", "Phone": "311", "ClubName": null, "ClubWebsite": null, "ClubInfo": null, "LocationAddress": "50  Cabernet Cir ", "WinterPlay": null, "url": "" ,"Rating":"4.3"} },
{ "type": "Feature", "geometry": { "type": "Point", "coordinates": [ -79.320795652900003, 43.764546027900003 ] }, "properties": { "_id": 130, "ID": "347", "Name": "Roywood Park", "Type": "Public", "Lights": "Yes", "Courts": "4", "Phone": "311", "ClubName": null, "ClubWebsite": null, "ClubInfo": null, "LocationAddress": "2  Roywood Dr ", "WinterPlay": "Yes", "url": "" ,"Rating":"4.3"} },
{ "type": "Feature", "geometry": { "type": "Point", "coordinates": [ -79.389243418500001, 43.792288551600002 ] }, "properties": { "_id": 131, "ID": "747", "Name": "Ruddington Park", "Type": "Public", "Lights": "Yes", "Courts": "3", "Phone": "311", "ClubName": null, "ClubWebsite": null, "ClubInfo": null, "LocationAddress": "75  Ruddington Dr ", "WinterPlay": null, "url": "" ,"Rating":"4.0 "} },
{ "type": "Feature", "geometry": { "type": "Point", "coordinates": [ -79.478552134200001, 43.668291359599998 ] }, "properties": { "_id": 132, "ID": "235", "Name": "Runnymede Park", "Type": "Public", "Lights": "No", "Courts": "2", "Phone": "311", "ClubName": null, "ClubWebsite": null, "ClubInfo": null, "LocationAddress": "221  Ryding Ave ", "WinterPlay": "Yes", "url": "https://www.toronto.ca/ext/pfr/img/235/5.jpg" ,"Rating":"4.3"} },
{ "type": "Feature", "geometry": { "type": "Point", "coordinates": [ -79.241818167100007, 43.703805872700002 ] }, "properties": { "_id": 133, "ID": "1748", "Name": "Scarboro Crescent Park", "Type": "Club", "Lights": "Yes", "Courts": "4", "Phone": "416-410-6300", "ClubName": "Scarborough Bluffs Tennis Club", "ClubWebsite": "http://www.sbtennis.org", "ClubInfo": null, "LocationAddress": "61 Undercliff Dr ", "WinterPlay": "Yes", "url": "https://www.toronto.ca/ext/pfr/img/1748/4771-tennis-court-1-scarboro-crescent-park.jpg" ,"Rating":"4.5"} },
{ "type": "Feature", "geometry": { "type": "Point", "coordinates": [ -79.510647199100006, 43.675747482 ] }, "properties": { "_id": 134, "ID": "1471", "Name": "Scarlett Mills Park", "Type": "Club", "Lights": "Yes", "Courts": "4", "Phone": "416-279-9940", "ClubName": "Edenbridge Tennis Club", "ClubWebsite": "https://edenbridgetennis.com/", "ClubInfo": null, "LocationAddress": "235  Edenbridge Dr ", "WinterPlay": null, "url": "" ,"Rating":"4.6"} },
{ "type": "Feature", "geometry": { "type": "Point", "coordinates": [ -79.351731711900001, 43.791504741099999 ] }, "properties": { "_id": 135, "ID": "748", "Name": "Seneca Hill Park", "Type": "Club", "Lights": "Yes", "Courts": "4", "Phone": "311", "ClubName": "Seneca Hill Tennis Club", "ClubWebsite": "http://www.senecahilltennis.com", "ClubInfo": null, "LocationAddress": "620  Seneca Hill Dr ", "WinterPlay": null, "url": "" ,"Rating":"4.3"} },
{ "type": "Feature", "geometry": { "type": "Point", "coordinates": [ -79.4985517251, 43.755200341399998 ] }, "properties": { "_id": 136, "ID": "752", "Name": "Sentinel Park", "Type": "Public", "Lights": "No", "Courts": "2", "Phone": "311", "ClubName": null, "ClubWebsite": null, "ClubInfo": null, "LocationAddress": "295  Sentinel Rd ", "WinterPlay": "Yes", "url": "https://www.toronto.ca/ext/pfr/img/752/752-tennis-court-sentinel-park.jpg" ,"Rating":"4.1"} },
{ "type": "Feature", "geometry": { "type": "Point", "coordinates": [ -79.210584268100007, 43.788250949400002 ] }, "properties": { "_id": 137, "ID": "590", "Name": "Seven Oaks Park", "Type": "Club", "Lights": "Yes", "Courts": "3", "Phone": "311", "ClubName": "Seven Oaks Tennis Club", "ClubWebsite": null, "ClubInfo": null, "LocationAddress": "372  Military Trl ", "WinterPlay": null, "url": "" ,"Rating":"4.5"} },
{ "type": "Feature", "geometry": { "type": "Point", "coordinates": [ -79.338351243600002, 43.797043156 ] }, "properties": { "_id": 138, "ID": "2595", "Name": "Shawnee Park", "Type": "Public", "Lights": "No", "Courts": "4", "Phone": "311", "ClubName": null, "ClubWebsite": null, "ClubInfo": null, "LocationAddress": "81  Shawnee Cir ", "WinterPlay": "Yes", "url": "" ,"Rating":"4.4"} },
{ "type": "Feature", "geometry": { "type": "Point", "coordinates": [ -79.543403826700001, 43.682701121299999 ] }, "properties": { "_id": 139, "ID": "877", "Name": "Silver Creek Park", "Type": "Club", "Lights": "Yes", "Courts": "3", "Phone": "416-244-7286", "ClubName": "Silver Creek Seniors Tennis Club", "ClubWebsite": null, "ClubInfo": null, "LocationAddress": "44  Strathdee Dr. ", "WinterPlay": "Yes", "url": "https://www.toronto.ca/ext/pfr/img/877/2.jpg" ,"Rating":"4.5"} },
{ "type": "Feature", "geometry": { "type": "Point", "coordinates": [ -79.547549106800005, 43.602121408 ] }, "properties": { "_id": 140, "ID": "2065", "Name": "Sir Adam Beck Park", "Type": "Public", "Lights": "Yes", "Courts": "2", "Phone": "311", "ClubName": null, "ClubWebsite": null, "ClubInfo": null, "LocationAddress": "55  Eltham Dr ", "WinterPlay": null, "url": "" ,"Rating":"4.6"} },
{ "type": "Feature", "geometry": { "type": "Point", "coordinates": [ -79.408860746, 43.682881295800001 ] }, "properties": { "_id": 141, "ID": "200", "Name": "Sir Winston Churchill Park", "Type": "Club", "Lights": "Yes", "Courts": "7", "Phone": "416-924-4558", "ClubName": "Sir Winston Churchill Tennis Club", "ClubWebsite": "http://www.winstonchurchilltennis.ca", "ClubInfo": null, "LocationAddress": "301  St. Clair Ave W", "WinterPlay": null, "url": "https://www.toronto.ca/ext/pfr/img/200/1089-7842-tennis-courts-sir-winston-churchill-park.jpg" ,"Rating":"4.5"} },
{ "type": "Feature", "geometry": { "type": "Point", "coordinates": [ -79.443067482, 43.6486487345 ] }, "properties": { "_id": 142, "ID": "348", "Name": "Sorauren Avenue Park", "Type": "Public", "Lights": "No", "Courts": "2", "Phone": "311", "ClubName": null, "ClubWebsite": null, "ClubInfo": null, "LocationAddress": "289  Sorauren Ave ", "WinterPlay": "Yes", "url": "https://www.toronto.ca/ext/pfr/img/348/4.jpg" ,"Rating":"4.6"} },
{ "type": "Feature", "geometry": { "type": "Point", "coordinates": [ -79.477337124599998, 43.734495872499998 ] }, "properties": { "_id": 143, "ID": "3693", "Name": "Stanley Greene Park", "Type": "None", "Lights": "Yes", "Courts": "2", "Phone": "311", "ClubName": null, "ClubWebsite": null, "ClubInfo": null, "LocationAddress": "55  Stanley Greene Blvd.  ", "WinterPlay": null, "url": "" ,"Rating":"4.6"} },
{ "type": "Feature", "geometry": { "type": "Point", "coordinates": [ -79.515406362, 43.741902689900002 ] }, "properties": { "_id": 144, "ID": "761", "Name": "Stanley Park", "Type": "Public", "Lights": "No", "Courts": "3", "Phone": "311", "ClubName": null, "ClubWebsite": null, "ClubInfo": null, "LocationAddress": "27  Stanley Rd. ", "WinterPlay": "Yes", "url": "" ,"Rating":"4.5"} },
{ "type": "Feature", "geometry": { "type": "Point", "coordinates": [ -79.408934829299994, 43.641910765600002 ] }, "properties": { "_id": 145, "ID": "2750", "Name": "Stanley Park South - Toronto", "Type": "Public", "Lights": "No", "Courts": "2", "Phone": "416-392-0703", "ClubName": null, "ClubWebsite": null, "ClubInfo": null, "LocationAddress": "700  Wellington St W", "WinterPlay": null, "url": "https://www.toronto.ca/ext/pfr/img/2750/6.jpg" ,"Rating":"4.5"} },
{ "type": "Feature", "geometry": { "type": "Point", "coordinates": [ -79.3024857029, 43.787216477500003 ] }, "properties": { "_id": 146, "ID": "762", "Name": "Strathburn Park", "Type": "Public", "Lights": "Yes", "Courts": "2", "Phone": "311", "ClubName": null, "ClubWebsite": null, "ClubInfo": null, "LocationAddress": "55  Strathburn Blvd ", "WinterPlay": null, "url": "https://encrypted-tbn0.gstatic.com/images?q=tbn:ANd9GcQiRL-7MbkV6C23i1hyLAkweypBKETxWDhPqA&s" ,"Rating":"4.5"} },
{ "type": "Feature", "geometry": { "type": "Point", "coordinates": [ -79.548554020400005, 43.730617605399999 ] }, "properties": { "_id": 147, "ID": "870", "Name": "Summerlea Park", "Type": "Public", "Lights": "Yes", "Courts": "2", "Phone": "311", "ClubName": null, "ClubWebsite": null, "ClubInfo": null, "LocationAddress": "2  Arcot Blvd ", "WinterPlay": null, "url": "" ,"Rating":"4.3"} },
{ "type": "Feature", "geometry": { "type": "Point", "coordinates": [ -79.578525277099999, 43.724096594199999 ] }, "properties": { "_id": 148, "ID": "871", "Name": "Sunnydale Acres Park", "Type": "Public", "Lights": "Yes", "Courts": "4", "Phone": "311", "ClubName": null, "ClubWebsite": null, "ClubInfo": null, "LocationAddress": "50  Amoro Dr ", "WinterPlay": null, "url": "" ,"Rating":"4.4"} },
{ "type": "Feature", "geometry": { "type": "Point", "coordinates": [ -79.501630952900001, 43.641557104699999 ] }, "properties": { "_id": 149, "ID": "1021", "Name": "Sunnylea Park", "Type": "Public", "Lights": "Yes", "Courts": "2", "Phone": "311", "ClubName": null, "ClubWebsite": null, "ClubInfo": null, "LocationAddress": "195 Prince Edward Dr S", "WinterPlay": "Yes", "url": "" ,"Rating":"4.6"} },
{ "type": "Feature", "geometry": { "type": "Point", "coordinates": [ -79.316011738, 43.736213299200003 ] }, "properties": { "_id": 150, "ID": "763", "Name": "Sweeney Park", "Type": "Public", "Lights": "Yes", "Courts": "3", "Phone": "311", "ClubName": null, "ClubWebsite": null, "ClubInfo": null, "LocationAddress": "110  Sweeney Dr ", "WinterPlay": null, "url": "" ,"Rating":"5.0"} },
{ "type": "Feature", "geometry": { "type": "Point", "coordinates": [ -79.452285681099994, 43.666706104699998 ] }, "properties": { "_id": 151, "ID": "216", "Name": "Symington Avenue Playground", "Type": "Public", "Lights": "No", "Courts": "2", "Phone": "311", "ClubName": null, "ClubWebsite": null, "ClubInfo": null, "LocationAddress": "431  Perth Ave ", "WinterPlay": "Yes", "url": "https://www.toronto.ca/ext/pfr/img/216/4.jpg" ,"Rating":"4.3"} },
{ "type": "Feature", "geometry": { "type": "Point", "coordinates": [ -79.197778920999895, 43.791461360999897 ] }, "properties": { "_id": 152, "ID": "2154", "Name": "Tam Heather Country Club Grounds", "Type": "Club", "Lights": "Yes", "Courts": "4", "Phone": "311", "ClubName": null, "ClubWebsite": null, "ClubInfo": null, "LocationAddress": "50  Bonspiel Dr ", "WinterPlay": null, "url": "https://i.ytimg.com/vi/TWcWzNUfUjg/maxresdefault.jpg" ,"Rating":"4.0"} },
{ "type": "Feature", "geometry": { "type": "Point", "coordinates": [ -79.253370886499994, 43.757578617699998 ] }, "properties": { "_id": 153, "ID": "543", "Name": "Thomson Memorial Park", "Type": "Club", "Lights": "Yes", "Courts": "3", "Phone": "311", "ClubName": "Thomson Park Tennis Club", "ClubWebsite": null, "ClubInfo": null, "LocationAddress": "1005  Brimley Rd ", "WinterPlay": null, "url": "https://www.toronto.ca/ext/pfr/img/543/208-tennis-court-1-4-thomson-memorial-park.jpg" ,"Rating":"4.5"} },
{ "type": "Feature", "geometry": { "type": "Point", "coordinates": [ -79.339444496900001, 43.750597336299997 ] }, "properties": { "_id": 154, "ID": "764", "Name": "Three Valleys Park", "Type": "Club", "Lights": "Yes", "Courts": "2", "Phone": "416-391-3962", "ClubName": "Parkway Valley Tennis Club", "ClubWebsite": "http://www.pvtc.ca", "ClubInfo": null, "LocationAddress": "82  Three Valleys Dr ", "WinterPlay": null, "url": "" ,"Rating":"3.4"} },
{ "type": "Feature", "geometry": { "type": "Point", "coordinates": [ -79.521778588800004, 43.648457052300003 ] }, "properties": { "_id": 155, "ID": "837", "Name": "Tom Riley Park", "Type": "Club", "Lights": "Yes", "Courts": "3", "Phone": "416-236-2835", "ClubName": "Central Tennis Club", "ClubWebsite": "http://www.centraltennisclub.com", "ClubInfo": null, "LocationAddress": "4725  Dundas St. W", "WinterPlay": "Yes", "url": "https://www.toronto.ca/ext/pfr/img/837/26465-tennis-court-1-south-tom-riley-park.jpg" ,"Rating":"4.3"} },
{ "type": "Feature", "geometry": { "type": "Point", "coordinates": [ -79.306517264700005, 43.7100225274 ] }, "properties": { "_id": 156, "ID": "276", "Name": "Topham Park", "Type": "Public", "Lights": "Yes", "Courts": "2", "Phone": "311", "ClubName": null, "ClubWebsite": null, "ClubInfo": null, "LocationAddress": "181  Westview Blvd. ", "WinterPlay": "Yes", "url": "https://www.toronto.ca/ext/pfr/img/276/32720-tennis-courts-topham-park.jpg" ,"Rating":"4.5"} },
{ "type": "Feature", "geometry": { "type": "Point", "coordinates": [ -79.399697627500004, 43.751534231500003 ] }, "properties": { "_id": 157, "ID": "766", "Name": "Tournament Park", "Type": "Club", "Lights": "Yes", "Courts": "4", "Phone": "416-733-4643", "ClubName": "Tournament Park Tennis Club", "ClubWebsite": "http://www.tournamentpark.com", "ClubInfo": null, "LocationAddress": "40  Tournament Dr ", "WinterPlay": null, "url": "" ,"Rating":"4.7"} },
{ "type": "Feature", "geometry": { "type": "Point", "coordinates": [ -79.367449514599997, 43.705570191 ] }, "properties": { "_id": 158, "ID": "934", "Name": "Trace Manes Park", "Type": "Club", "Lights": "Yes", "Courts": "6", "Phone": "416-467-9350", "ClubName": "Leaside Tennis Club", "ClubWebsite": "http://www.leasidetennis.org", "ClubInfo": null, "LocationAddress": "110  Rumsey Rd ", "WinterPlay": null, "url": "https://www.toronto.ca/ext/pfr/img/934/43158-43161-tennis-courts-trace-manes-park.jpg" ,"Rating":"4.8"} },
{ "type": "Feature", "geometry": { "type": "Point", "coordinates": [ -79.414303605399994, 43.647793480099999 ] }, "properties": { "_id": 159, "ID": "241", "Name": "Trinity Bellwoods Park", "Type": "Public", "Lights": "No", "Courts": "8", "Phone": "311", "ClubName": null, "ClubWebsite": null, "ClubInfo": null, "LocationAddress": "790  Queen St W", "WinterPlay": "Yes", "url": "https://www.toronto.ca/ext/pfr/img/241/7591-tennis-court-1-trinity-bellwoods-park.jpg" ,"Rating":"4.6"} },
{ "type": "Feature", "geometry": { "type": "Point", "coordinates": [ -79.437459387600001, 43.707028703299997 ] }, "properties": { "_id": 160, "ID": "772", "Name": "Viewmount Park", "Type": "Club", "Lights": "Yes", "Courts": "4", "Phone": "416-395-6021", "ClubName": "Viewmount Park Tennis Club", "ClubWebsite": "https://viewmount.ca", "ClubInfo": null, "LocationAddress": "169  Viewmount Ave ", "WinterPlay": null, "url": "https://www.toronto.ca/ext/pfr/img/772/4.jpg" ,"Rating":"4.5"} },
{ "type": "Feature", "geometry": { "type": "Point", "coordinates": [ -79.392057330499995, 43.728932197 ] }, "properties": { "_id": 161, "ID": "265", "Name": "Wanless Park", "Type": "Club", "Lights": "Yes", "Courts": "5", "Phone": "416-483-4546", "ClubName": "Wanless Park Tennis Club", "ClubWebsite": "http://www.wanlesstennis.com", "ClubInfo": null, "LocationAddress": "250  Wanless Ave ", "WinterPlay": null, "url": "" ,"Rating":"4.6"} },
{ "type": "Feature", "geometry": { "type": "Point", "coordinates": [ -79.547517477, 43.6444634749 ] }, "properties": { "_id": 162, "ID": "773", "Name": "Wedgewood Park - Etobicoke", "Type": "Public", "Lights": "Yes", "Courts": "1", "Phone": "311", "ClubName": null, "ClubWebsite": null, "ClubInfo": null, "LocationAddress": "15  Swan Ave ", "WinterPlay": null, "url": "" ,"Rating":"4.5"} },
{ "type": "Feature", "geometry": { "type": "Point", "coordinates": [ -79.406311379900004, 43.790511308600003 ] }, "properties": { "_id": 163, "ID": "2673", "Name": "Wedgewood Park - North York", "Type": "Public", "Lights": "No", "Courts": "2", "Phone": "311", "ClubName": null, "ClubWebsite": null, "ClubInfo": null, "LocationAddress": "145  Wedgewood Dr ", "WinterPlay": "Yes", "url": "" ,"Rating":"4.4"} },
{ "type": "Feature", "geometry": { "type": "Point", "coordinates": [ -79.563494007800003, 43.663998963200001 ] }, "properties": { "_id": 164, "ID": "873", "Name": "West Deane Park", "Type": "Club", "Lights": "Yes", "Courts": "4", "Phone": "311", "ClubName": "Martingrove Tennis Club", "ClubWebsite": "http://www.martingrovetennis.com", "ClubInfo": "Has public hours - Public Hours: 5 PM - 11 PM (Sundays Only)", "LocationAddress": "19  Sedgebrook Cres ", "WinterPlay": null, "url": "" ,"Rating":"4.5"} },
{ "type": "Feature", "geometry": { "type": "Point", "coordinates": [ -79.125463731400004, 43.791590190299999 ] }, "properties": { "_id": 165, "ID": "754", "Name": "West Rouge Park", "Type": "Club", "Lights": "Yes", "Courts": "3", "Phone": "311", "ClubName": "West Rouge Tennis Club", "ClubWebsite": "http://www.westrougetennisclub.com", "ClubInfo": null, "LocationAddress": "270  Rouge Hills Dr ", "WinterPlay": null, "url": "https://www.toronto.ca/ext/pfr/img/754/27731-tennis-court-one-west-rouge-park.jpg" ,"Rating":"4.9"} },
{ "type": "Feature", "geometry": { "type": "Point", "coordinates": [ -79.567661213400001, 43.681820802399997 ] }, "properties": { "_id": 166, "ID": "876", "Name": "Westgrove Park", "Type": "Public", "Lights": "Yes", "Courts": "2", "Phone": "311", "ClubName": null, "ClubWebsite": null, "ClubInfo": null, "LocationAddress": "15  Redgrave Dr ", "WinterPlay": null, "url": "" ,"Rating":"4.2"} },
{ "type": "Feature", "geometry": { "type": "Point", "coordinates": [ -79.518809718100002, 43.687305663 ] }, "properties": { "_id": 167, "ID": "2006", "Name": "Westmount Park", "Type": "Public", "Lights": "Yes", "Courts": "3", "Phone": "311", "ClubName": null, "ClubWebsite": null, "ClubInfo": null, "LocationAddress": "22  Arcade Dr ", "WinterPlay": "Yes", "url": "https://www.toronto.ca/ext/pfr/img/2006/2.jpg" ,"Rating":"4.4"} },
{ "type": "Feature", "geometry": { "type": "Point", "coordinates": [ -79.518097828199998, 43.6985583795 ] }, "properties": { "_id": 168, "ID": "508", "Name": "Weston Lions Park", "Type": "Club", "Lights": "Yes", "Courts": "4", "Phone": "416-243-7068", "ClubName": "York Weston Lions Tennis Club", "ClubWebsite": "http://www.ywtc.ca", "ClubInfo": null, "LocationAddress": "2125  Lawrence Ave W", "WinterPlay": null, "url": "https://www.toronto.ca/ext/pfr/img/508/214-tennis-court-1-weston-lions-park.jpg" ,"Rating":"4.4"} },
{ "type": "Feature", "geometry": { "type": "Point", "coordinates": [ -79.541521757699996, 43.687769270799997 ] }, "properties": { "_id": 169, "ID": "874", "Name": "Westway Park", "Type": "Public", "Lights": "Yes", "Courts": "4", "Phone": "311", "ClubName": null, "ClubWebsite": null, "ClubInfo": null, "LocationAddress": "175  The Westway ", "WinterPlay": null, "url": "" ,"Rating":"4.4"} },
{ "type": "Feature", "geometry": { "type": "Point", "coordinates": [ -79.407279077, 43.7663856008 ] }, "properties": { "_id": 170, "ID": "586", "Name": "Wishing Well Park", "Type": "Club", "Lights": "Yes", "Courts": "3", "Phone": "416-492-9696", "ClubName": "Wishing Well Tennis Club", "ClubWebsite": "http://www.wwtc.sprinterweb.net", "ClubInfo": null, "LocationAddress": "1700  Pharmacy Ave ", "WinterPlay": null, "url": "https://www.toronto.ca/ext/pfr/img/586/5012-tennis-court-one-wishing-well-park.jpg" ,"Rating":"4.4"} },
{ "type": "Feature", "geometry": { "type": "Point", "coordinates": [ -79.346933061399994, 43.674432060299999 ] }, "properties": { "_id": 171, "ID": "306", "Name": "Withrow Park and Clubhouse", "Type": "Public", "Lights": "No", "Courts": "2", "Phone": "311", "ClubName": null, "ClubWebsite": null, "ClubInfo": null, "LocationAddress": "725  Logan Ave ", "WinterPlay": "Yes", "url": "" ,"Rating":"4.6"} },
{ "type": "Feature", "geometry": { "type": "Point", "coordinates": [ -79.405313203199995, 43.740483445899997 ] }, "properties": { "_id": 172, "ID": "1476", "Name": "York Mills Valley Park", "Type": "Club", "Lights": "Yes", "Courts": "5", "Phone": "416-440-0645", "ClubName": "Valley Tennis Club", "ClubWebsite": "http://www.valleytennisclub.com", "ClubInfo": null, "LocationAddress": "3865  Yonge St ", "WinterPlay": null, "url": "https://www.toronto.ca/ext/pfr/img/1476/28373-28374-tennis-court-york-mills-valley-park.jpg"  ,"Rating":"4.4"} }
]
}
